,Name,Address,City,State,Phone,Contact
0,ALHAMBRA,412 EAST MAIN STREET,ALHAMBRA,CA,(626) 299-5980,
2,ALHAMBRA,412 EAST MAIN STREET,ALHAMBRA,CA,(626) 299-5980,
4,ANAHEIM HILLS,5757 SANTA ANA CANYON RD.,ANAHEIM HILLS,CA,(714) 282-3931,
6,CERRITOS - ALONDRA BLVD,10802 ALONDRA BLVD.,CERRITOS,CA,(562) 924-8737,
8,CHINO,14485 PIPELINE AVE.,CHINO,CA,(909) 393-3101,
9,CORAL SPRINGS - UNIVERSITY DR,2633 UNIVERSITY DRIVE,CORAL SPRINGS,FL,(954) 755-3300,
14,DIAMOND BAR,20801 GOLDEN SPRINGS DR.,DIAMOND BAR,CA,(909) 595-0045,
15,FOUNTAIN VALLEY,10115 TALBERT AVENUE,FOUNTAIN VALLEY,CA,(714) 962-1374,
20,KENDALL - SW 124TH,8555 SW 124TH AVENUE,MIAMI,FL,(305) 412-9097,
27,MIRACLE MILE,5950 WILSHIRE BLVD.,MIRACLE MILE,CA,(323) 934-6150,
29,MOON VALLEY/PHOENIX NORTH,244 EAST GREENWAY PKWY.,PHOENIX,AZ,(602) 863-3830,
31,PASADENA - LAKE AVE,201 S. LAKE AVENUE,PASADENA,CA,(626) 568-3598,
32,E PEMBROKE PINES-N UNIVERSITY,350 N. UNIVERSITY DRIVE,PEMBROKE PINES,FL,(954) 438-7546,
37,SHERMAN OAKS,5300 COLDWATER CANYON,SHERMAN OAKS,CA,(818) 505-0772,
38,TEMPE,63 E. SOUTHERN AVENUE,TEMPE,AZ,(480) 829-0622,
39,BLOCK @ ORANGE,3901 W. METROPOLITAN DR.,ORANGE,CA,(714) 769-8000,
45,WESTWOOD,10921 WILSHIRE BLVD.,WESTWOOD,CA,(310) 209-5002,
47,LONG BEACH-CHERRY,2140 EAST CARSON ST.,LONG BEACH,CA,(562) 997-9176,
51,NORCO,1377 HAMNER AVE.,NORCO,CA,(951) 280-4477,
52,ENCINITAS,201 S. EL CAMINO REAL SUITE #A,ENCINITAS,CA,(760) 753-5600,
54,PEMBROKE PINES WEST/FLAMINGO,1900 N. FLAMINGO ROAD,W. PEMBROKE,FL,(954) 447-3840,
55,OXFORD VALLEY,7 CABOT BLVD.,LANGHORNE,PA,(215) 943-9500,
56,DADE COUNTY SOUTH,16051 S DIXIE HWY,MIAMI,FL,(305) 232-6778,
57,FORT LAUDERDALE,3825 N. FEDERAL HWY.,OAKLAND PARK,FL,(954) 567-2727,
58,TURNERSVILLE,5901 ROUTE 42,TURNERSVILLE,NJ,(856) 401-9688,
60,YORBA LINDA,16951 IMPERIAL HWY.,YORBA LINDA,CA,(714) 854-7936,
61,LA HABRA,1621 W. IMPERIAL HWY.,LA HABRA,CA,(562) 697-8899,
62,LA VERNE,1275 E. FOOTHILL BLVD.,LA VERNE,CA,(909) 392-1063,
74,"LENOX/BUCKHEAD, GA","3232 PEACHTREE ROAD NW, #A",ATLANTA,GA,(404) 233-8311,
96,LAKE FOREST,29400 PORTOLA PARKWAY,LAKE FOREST,CA,(949) 597-2077,
98,NORTHRIDGE,18679 DEVONSHIRE ST.,NORTHRIDGE,CA,(818) 832-5496,
99,VISTA,680 HACIENDA DR.,VISTA,CA,(760) 732-0072,
101,TORRANCE,3550 CARSON ST. SUITE 404,TORRANCE,CA,(310) 921-9890,
102,ESCONDIDO,362  W. EL NORTE PKWY,ESCONDIDO,CA,(760) 738-1347,
103,KEARNY MESA,4984 SHAWLINE ST,SAN DIEGO,CA,(858) 292-8810,
105,MURRIETA,40985 CALIFORNIA OAKS ROAD,MURRIETA,CA,(951) 600-9998,
106,REDLANDS,1035 PARKFORD DRIVE,REDLANDS,CA,(909) 798-2880,
107,CORONA SOUTH - COMPTON AVE,2355 COMPTON AVE,SOUTH CORONA,CA,(951) 898-1178,
108,GARDEN GROVE,11932 VALLEY VIEW STREET,GARDEN GROVE,CA,(714) 379-9744,
110,VENTURA,1760 VICTORIA AVENUE,VENTURA,CA,(805) 289-9907,
111,DORAL,10055 NW 41ST STREET,MIAMI,FL,(305) 593-5621,
112,SUNRISE,3500 N. UNIVERSITY DRIVE,SUNRISE,FL,(954) 572-0158,
113,BENSALEM,500 ROCK HILL DRIVE,BENSALEM,PA,(215) 357-4311,
114,EAST NORRITON/SWEDE SQUARE,2961 SWEDE ROAD,EAST NORRITON,PA,(610) 279-0383,
115,FT WASHINGTON,1175 VIRGINIA DRIVE,FORT WASHINGTON,PA,(215) 646-1131,
116,WARRINGTON,599 PAUL VALLEY ROAD,WARRINGTON,PA,(215) 918-0900,
119,SOUTHLAKE,7057 MOUNT ZION CIRCLE,MORROW,GA,(770) 960-0393,
120,PERIMETER POINTE,"1155 MOUNT VERNON HWY., STE 600",DUNWOODY,GA,(770) 350-4951,
134,HUNTINGDON VALLEY,2020 COUNTY LINE RD.,HUNTINGDON VLY,PA,(215) 364-8044,
135,"SPRINGFIELD, PA",825 BALTIMORE PIKE,SPRINGFIELD,PA,(610) 543-2006,
147,CHERRY HILL,2100 STATE HWY #38,CHERRY HILL,NJ,(856) 482-8565,
148,SANTA FE SPRINGS,13332 E. TELEGRAPH RD.,SANTA FE SPRINGS,CA,(562) 941-6200,
149,BOCA RATON WEST - STATE RD,20443 STATE RD 7 (BAY BB1),BOCA RATON,FL,(561) 482-1146,
151,AHWATUKEE WEST,4836 E. CHANDLER BLVD,PHOENIX,AZ,(480) 592-9090,
152,ANSLEY MALL,1544 PIEDMONT AVE NE SUITE 115,ATLANTA,GA,(404) 249-6463,
155,GLENDORA,820 S. GRAND AVENUE,GLENDORA,CA,(626) 335-5474,
156,HOLCOMB @ 400,1475 HOLCOMB BRIDGE RD STE 189,ROSWELL,GA,(770) 640-8137,
189,LA CIENEGA,1833 C. SOUTH LA CIENEGA BLVD,LOS ANGELES,CA,(310) 202-6823,
191,W PALM BEACH / N MILITARY TRAIL,1925 N. MILITARY TRAIL,WEST PALM BEACH,FL,(561) 683-1277,
192,HUNTERS CREEK,12700 SOUTH ORANGE BLOSSOM TRAIL,ORLANDO,FL,(407) 851-0102,
193,MONTGOMERYVILLE,120 GARDEN GOLF BLVD.,NORTH WALES,PA,(215) 361-6133,
194,SUGARLOAF,1860 DULUTH HIGHWAY,LAWRENCEVILLE,GA,(770) 822-2533,
195,WELLINGTON,10180 FOREST HILL BLVD.,WELLINGTON,FL,(561) 333-3358,
196,POWAY,12648 POWAY ROAD,POWAY,CA,(858) 748-6498,
198,SORRENTO VALLEY,10535 HEATER COURT,SAN DIEGO,CA,(858) 550-5912,
199,WINTER PARK @ STATE ROAD 436,1540 STATE ROAD 436,WINTER PARK,FL,(407) 388-2258,
200,MIAMI GARDENS,1580 NE MIAMI GARDENS DRIVE,N. MIAMI BEACH,FL,(305) 940-6249,
201,ALLENTOWN,1515 MAUCH CHUNK ROAD,ALLENTOWN,PA,(610) 432-7330,
223,IRVINE - JAMBOREE,2880 MICHELLE DRIVE,IRVINE,CA,(714) 505-8958,
225,TUCSON NORTH - WEST INA ROAD,2950 WEST INA ROAD,TUCSON,AZ,(520) 742-2881,
226,LAKE SUCCESS (Signature),1111 MARCUS AVENUE,NEW HYDE PARK,NY,(516) 355-2302,
227,RIVERSIDE-ALESSANDRO,19531 MISSION VILLAGE DR,RIVERSIDE,CA,(951) 780-4838,
228,EAST COBB,4400 ROSWELL ROAD SUITE 126,MARIETTA,GA,(770) 973-3370,
231,CAMELBACK @ I-51,2077 EAST CAMELBACK ROAD,PHOENIX,AZ,(602) 241-9800,
232,JOHNS CREEK,11720 MEDLOCK BRIDGE ROAD SUITE 400,DULUTH,GA,(770) 623-9433,
233,NORTH LAKE TUCKER,1990 WEST EXCHANGE PLACE,TUCKER,GA,(770) 414-0651,
234,DEERFIELD BEACH,1000 EAST HILLSBORO BLVD,DEERFIELD BEACH,FL,(954) 418-3330,
236,MIAMI WEST -SW 8TH STREET,14100 SW 8TH STREET,MIAMI,FL,(305) 222-1041,
237,ANDORRA,701 CATHEDRAL ROAD,PHILADELPHIA,PA,(215) 482-4088,
238,NORTH BRUNSWICK,536 MILLTOWN ROAD,NORTH BRUNSWICK,NJ,(732) 342-7440,
239,SAWGRASS,13999 WEST SUNRISE BLVD,SUNRISE,FL,(954) 838-7664,
241,CONWAY - MICHIGAN,4550 EAST MICHIGAN STREET,ORLANDO,FL,(407) 381-3133,
242,BALA CYNWYD,25 EAST CITY AVENUE,BALA CYNWYD,PA,(610) 664-4282,
243,SCOTTSDALE -SCOTTSDALE RD,1900 N. SCOTTSDALE ROAD,SCOTTSDALE,AZ,(480) 675-7600,
247,WATERFORD LAKES,815 ALAFAYA TRAIL,ORLANDO,FL,(407) 380-1526,
252,TUCSON - WILMOT RD.,240 SOUTH WILMOT RD,TUCSON,AZ,(520) 748-1295,
253,VALENCIA,28211 NEWHALL RANCH RD,VALENCIA,CA,(661) 294-0985,
254,BOYNTON BEACH,2290 N. CONGRESS AVENUE,BOYNTON BEACH,FL,(561) 364-5766,
255,COCONUT CREEK,5501 LYONS ROAD,COCONUT CREEK,FL,(954) 426-0625,
256,PISCATAWAY (Signature),200 NEW WORLD WAY,SOUTH PLAINFIELD,NJ,(908) 755-3104,
258,FARMINGDALE (Signature),2110 ROUTE #110 BROAD HOLLOW ROAD,FARMINGDALE,NY,(631) 293-4263,
259,LANCASTER,1300A LITITZ PIKE,LANCASTER,PA,(717) 295-1990,
260,GRESHAM,779 NW COUNCIL DRIVE,GRESHAM,OR,(503) 669-8818,
261,STAMFORD,52 SIXTH STREET,STAMFORD,CT,(203) 353-8810,
262,SOUTH MIAMI - SUNSET DRIVE,5701 SUNSET DRIVE SUITE#134,SOUTH MIAMI,FL,(305) 665-7846,
266,UNIVERSAL CITY,3400 CAHUENGA BLVD WEST,LOS ANGELES,CA,(323) 876-1076,
268,AKERS MILL,2995 COBB PARKWAY,ATLANTA,GA,(770) 956-9093,
269,EASTLAKE,2070 OTAY LAKES ROAD,CHULA VISTA,CA,(619) 397-7240,
270,TOCO HILLS,2880 N. DRUID HILL,ATLANTA,GA,(404) 321-2330,
271,PALM BEACH GARDENS/LAKE PARK,3176 NORTHLAKE BLVD,PALM BEACH GARDENS,FL,(561) 848-4170,
275,"HOLLYWOOD, FL",5591 SHERIDAN STREET,HOLLYWOOD,FL,(954) 985-0194,
283,TANASBOURNE/HILLSBORO,7410 NE IMBRIE DR,HILLSBORO,OR,(503) 640-7872,
284,"HOLLYWOOD BLVD, CA",7021 HOLLYWOOD BLVD.,LOS ANGELES,CA,(323) 462-5199,
285,MILL CREEK,15024 MAIN STREET,MILL CREEK,WA,(425) 379-9703,
286,KELLER,1861 MAIN STREET,KELLER,TX,(817) 562-3052,
287,OVIEDO,199 MITCHELL HAMMOCK ROAD,OVIEDO,FL,(407) 977-8177,
288,COLONIAL DRIVE EAST,2999 E. COLONIAL,ORLANDO,FL,(407) 896-1202,
289,TEMECULA,39716 WINCHESTER ROAD,TEMECULA,CA,(951) 676-1601,
290,ALPHARETTA/WINDWARD,"5530 WINDWARD PARKWAY, SUITE H",ALPHARETTA,GA,(678) 393-2733,
291,UNION HILLS,18295 NORTH 83RD AVE,GLENDALE,AZ,(623) 334-9111,
292,MISSOURI CITY,5402 HIGHWAY 6,MISSOURI CITY,TX,(281) 208-8310,
293,FRISCO,9190 STATE HIGHWAY 121,FRISCO,TX,(214) 705-7814,
296,SNELLVILLE,2279 PINEHURST RD,SNELLVILLE,GA,(770) 979-1288,
298,SANTA CLARITA,26455 GOLDEN VALLEY ROAD,SANTA CLARITA,CA,(661) 254-8268,
300,MCKINNEY,2875 S. CENTRAL EXPRESSWAY,MCKINNEY,TX,(469) 952-2319,
304,MT LAUREL,4300 DEARBORN CIRCLE,MT. LAUREL,NJ,(856) 638-0419,
306,KATY,19550 RESTAURANT ROW,HOUSTON,TX,(281) 578-0115,
307,WEST OAKS,9025 HIGHWAY 6 SOUTH,HOUSTON,TX,(281) 575-0070,
309,PLANO SOUTH - W PRES GWB HWY,3701 W. PRESIDENT GEORGE W. BUSH HWY,PLANO,TX,(972) 964-5916,
310,LAS COLINAS,5550 N. MACARTHUR BLVD.,IRVING,TX,(972) 580-7528,
311,PRESTON @ LBJ,13130 PRESTON RD NEAR LBJ FRWY,DALLAS,TX,(214) 360-9528,
312,ROWLETT,4401 LAKEVIEW PARKWAY,ROWLETT,TX,(972) 463-3301,
313,BELLEVUE - 106TH AVE,550 106TH AVENUE NE  SUITE 215,BELLEVUE,WA,(425) 688-8700,
314,MORENO VALLEY - CANYON SPRINGS,2600 CANYON SPRINGS PARKWAY,RIVERSIDE,CA,(951) 653-3240,
315,CAMP CREEK,"3755 CARMIA DR. SW, SUITE 700",ATLANTA,GA,(404) 344-1248,
316,MESA/SUPERSTITION,1905 SOUTH SIGNAL BUTTE,MESA,AZ,(480) 984-4900,
317,SOUTH WINDSOR,100 CEDAR AVE,SOUTH WINDSOR,CT,(860) 644-5552,
318,ARLINGTON SOUTH - LITTLE RD,4850 LITTLE RD,ARLINGTON,TX,(817) 478-2492,
320,HOLMDEL,2101 ROUTE 35,HOLMDEL,NJ,(732) 757-0051,
321,4S RANCH,16913 DOVE CANYON RD,SAN DIEGO,CA,(858) 676-6806,
322,MCCORMICK RANCH,7365 N. VIA PASEO DEL SUR,SCOTTSDALE,AZ,(480) 483-3100,
323,BEAVERTON,2800 SW HOCKEN AVE,BEAVERTON,OR,(503) 627-0737,
324,FEDERAL WAY,35009 ENCHANTED PARKWAY SOUTH,FEDERAL WAY,WA,(253) 838-5900,
325,SEATTLE - AURORA AVE NORTH,13244 AURORA AVE NORTH,SEATTLE,WA,(206) 973-0232,
326,CYPRESS,12304 BARKER CYPRESS ROAD,CYPRESS,TX,(281) 304-6500,
327,ELDRIDGE PKWY @ BRIAR FOREST,1555 ELDRIDGE PARKWAY,HOUSTON,TX,(281) 558-3801,
328,FT WORTH SOUTH -ALTA MESA BLVD,3560 ALTAMESA BLVD.,FORT WORTH,TX,(817) 361-6775,
329,HIGHLAND VILLAGE,3198 JUSTIN ROAD (FM 407),HIGHLAND VILLAGE,TX,(972) 317-9320,
330,SILVER SPRING,8616 CAMERON ST,SILVER SPRING,MD,(301) 589-2323,
332,PLANO EAST - K AVENUE,6101 K AVE,PLANO,TX,(972) 517-0294,
333,LEWISVILLE,798 VISTA RIDGE MALL DRIVE,LEWISVILLE,TX,(972) 315-2300,
334,UPLAND/210 FWY,1351 E. 19TH STREET,UPLAND,CA,(909) 985-1050,
335,HAMDEN,46 SKIFF STREET,HAMDEN,CT,(203) 287-9989,
336,CAMP HILL,3321 TRINDLE ROAD,CAMP HILL,PA,(717) 731-1015,
337,HAZEL DELL,7607 NE 5TH AVENUE,VANCOUVER,WA,(360) 546-3400,
341,EVANSTON,1618 SHERMAN AVENUE,EVANSTON,IL,(847) 864-9750,
342,STERLING VA,21074 DULLES TOWN CIRCLE,STERLING,VA,(703) 444-0302,
344,WAYNE,1070 HAMBURG TURNPIKE,WAYNE,NJ,(973) 694-0175,
345,STATEN ISLAND -EAST SERVICE RD (Signature),145 EAST SERVICE ROAD,STATEN ISLAND,NY,(718) 761-5606,
347,MARQ*E,"7620 KATY FREEWAY, STE. 200",HOUSTON,TX,(713) 984-8844,
348,ARLINGTON NORTH - I30 & COLLINS,141 ROAD TO SIX FLAGS ST. W,ARLINGTON,TX,(817) 469-1384,
349,LAKE HIGHLANDS,7211 SKILLMAN STREET,DALLAS,TX,(214) 341-0115,
350,SPRING,20127 INTERSTATE 45 NORTH,SPRING,TX,(281) 350-4298,
351,KLEIN,7422 LOUETTA RD,SPRING,TX,(281) 374-0048,
352,TINLEY PARK (Signature),18400 CONVENTION CENTER DRIVE,TINLEY PARK,IL,(708) 429-7050,
353,EULESS,2600 HIGHWAY 121,EULESS,TX,(817) 283-2115,
354,GRAND PRAIRIE,2803 WEST INTERSTATE HIGHWAY 20,GRAND PRAIRIE,TX,(972) 237-0084,
355,BOCA RATON EAST-TECHNOLOGY WAY,4950 TECHNOLOGY WAY,BOCA RATON,FL,(561) 206-3034,
357,FONTANA,16289 SIERRA LAKES PARKWAY,FONTANA,CA,(909) 743-5922,
358,SAN MARCOS,125 N TWIN OAKS VALLEY RD,SAN MARCOS,CA,(760) 744-3354,
359,WYOMISSING,1183 BERKSHIRE BLVD.,WYOMISSING,PA,(610) 373-6515,
361,RICHARDSON,1451 E. BELTLINE RD,RICHARDSON,TX,(214) 646-1382,
362,HANOVER PARK,7650 NORTH BARRINGTON ROAD,HANOVER PARK,IL,(630) 289-7738,
364,PORT ST. LUCIE - SW VILLAGE,10624 SW VILLAGE PARKWAY,PORT ST LUCIE,FL,(772) 345-2850,
367,PICO RIVERA,8909 WASHINGTON BLVD,PICO RIVERA,CA,(562) 801-0637,
368,TUCSON CENTRAL - 1ST AVE,4240 N 1ST AVE,TUCSON,AZ,(520) 888-4900,
369,ARCADIA,1325 SOUTH BALDWIN AVENUE,ARCADIA,CA,(626) 400-5001,
370,LAKE ELSINORE,18550 DEXTER AVE,LAKE ELSINORE,CA,(951) 579-4183,
371,BRANDON,2890 PROVIDENCE LAKES BLVD,BRANDON,FL,(813) 685-9160,
373,YORK,351 LOUCKS ROAD,YORK,PA,(717) 848-6910,
376,LANGHAM CREEK,17800 FM 529,HOUSTON,TX,(281) 855-3041,
377,INDIANAPOLIS - KEYSTONE AVE,6160 N. KEYSTONE AVENUE,INDIANAPOLIS,IN,(317) 254-8977,
378,ALHAMBRA/FREMONT,920 SOUTH FREMONT AVE,ALHAMBRA,CA,(626) 310-3030,
379,PEARLAND EAST,2850 PEARLAND PARKWAY,PEARLAND,TX,(281) 971-1555,
380,IRVINE EAST - IRVINE BLVD,6400 IRVINE BLVD.,IRVINE,CA,(949) 502-2043,
382,VAN NUYS - SEPULVEDA BLVD.,6161 NORTH SEPULVEDA BLVD,VAN NUYS,CA,(818) 988-7411,
383,ATLANTIC STATION,261 19TH ST. SUITE 1140,ATLANTA,GA,(404) 810-9015,
384,LUTZ @ N. DALE MABRY HWY,17631 N. DALE MABRY HIGHWAY,LUTZ,FL,(813) 962-7358,
385,ROSEVILLE - CLEVELAND AVE N,2420 CLEVELAND AVE. NORTH,ROSEVILLE,MN,(612) 235-4844,
387,COVINGTON,27245 172ND AVENUE SE,COVINGTON,WA,(253) 458-0960,
388,REDONDO,27417 PACIFIC HIGHWAY SOUTH,FEDERAL WAY,WA,(253) 941-5800,
391,SOUTHPORT,3855 E. SOUTHPORT RD,INDIANAPOLIS,IN,(317) 644-0683,
392,BUFORD,3420 BUFORD DRIVE NE,BUFORD,GA,(678) 714-5075,
393,LAKE GROVE (Signature),110 NEW MORICHES RD,LAKE GROVE,NY,(631) 619-2222,
395,LEAGUE CITY,1220 E. LEAGUE CITY PARKWAY,LEAGUE CITY,TX,(713) 893-5986,
396,EVERETT,"1402 SE. EVERETT MALL WAY, STE 138",EVERETT,WA,(425) 290-9351,
397,APPLE VALLEY,15135 GALAXIE AVENUE,APPLE VALLEY,MN,(952) 432-6085,
398,ALTAMONTE SPRINGS @ MONTGOMERY,1074 MONTGOMERY ROAD,ALTAMONTE SPRINGS,FL,(407) 304-8020,
400,NAPERVILLE,1836 FREEDOM DRIVE,NAPERVILLE,IL,(630) 303-9341,
401,PEMBROKE PINES - 184TH,18445 PINES BLVD.,PEMBROKE PINES,FL,(954) 441-5330,
402,BONITA SPRINGS,"8951 BONITA BEACH RD SE, STE. 560",BONITA SPRINGS,FL,(239) 494-6297,
403,GREENWOOD,540 N. STATE ROAD 135,GREENWOOD,IN,(317) 215-5947,
404,SOUTH LOOP,1101 SOUTH CANAL STREET,CHICAGO,IL,(312) 379-8631,
405,OSWEGO,201 OGDEN FALLS ROAD,OSWEGO,IL,(630) 608-4284,
406,ROUND LAKE BEACH,540 E. ROLLINS RD,ROUND LAKE BEACH,IL,(847) 752-6841,
407,SUGARLAND,19880 SOUTHWEST FREEWAY,SUGAR LAND,TX,(281) 232-8719,
408,CAPE CORAL,2301 DEL PRADO BLVD.,CAPE CORAL,FL,(239) 242-6383,
409,MONTEREY PARK,416 SOUTH ATLANTIC BLVD BUILDING B,MONTEREY PARK,CA,(323) 346-6061,
410,RENTON - N LANDING WAY,715 NORTH LANDING WAY,RENTON,WA,(206) 922-0350,
411,HEMET,220 NORTH SANDERSON AVE,HEMET,CA,(951) 663-4786,
412,MATTESON,4340 LINCOLN HIGHWAY,MATTESON,IL,(708) 668-4719,
413,BOLINGBROOK,506 JANES AVENUE,BOLINGBROOK,IL,(630) 739-7011,
415,PUYALLUP - 156TH,10515 156TH STREET EAST,PUYALLUP,WA,(253) 466-0007,
416,FT. WORTH/RIDGMAR,6500 WESTWORTH BLVD.,WESTWORTH,TX,(817) 339-6180,
417,DUNCANVILLE,114 E. HIGHWAY 67,DUNCANVILLE,TX,(972) 499-4889,
418,ALSIP,12080 S. CICERO AVENUE,ALSIP,IL,(708) 377-3589,
420,KENDALL WEST - SW 88TH,16339 SW 88TH ST,MIAMI,FL,(786) 269-2850,
421,EAST LOOP (Signature),55 EAST RANDOLPH ST,CHICAGO,IL,(312) 281-0113,
422,EDINA,4175 WEST 76TH STREET,EDINA,MN,(612) 235-4831,
423,BRISTOL,1379 FARMINGTON AVE,BRISTOL,CT,(860) 516-4200,
426,"SPRINGFIELD, MA","1150 WEST COLUMBUS AVENUE, UNIT 1",SPRINGFIELD,MA,(413) 301-1015,
427,"NORWALK, CT",761 MAIN AVE,NORWALK,CT,(203) 842-0012,
428,MCDONOUGH,95 FOSTER DRIVE,MCDONOUGH,GA,(678) 228-8011,
429,CARROLLTON,4220 MIDWAY ROAD,CARROLLTON,TX,(214) 483-1834,
430,LACEY,1200 GALAXY DRIVE,LACEY,WA,(360) 339-6209,
432,CROFTON/GAMBRILLS,2625 BRANDERMILL BLVD,GAMBRILLS,MD,(410) 774-0350,
433,BROOKLYN PARK,6600 96TH LANE NORTH,BROOKLYN PARK,MN,(763) 515-7778,
435,JOLIET,1745 ROUTE 59,PLAINFIELD,IL,(815) 676-5519,
437,PEARL DISTRICT,1400 NW NORTHRUP STREET,PORTLAND,OR,(503) 928-8892,
440,PLEASANT HILLS,"601 CLAIRTON BLVD., UNIT 38",PLEASANT HILLS,PA,(412) 224-1888,
441,BRIDGEVILLE,1155 WASHINGTON PIKE,BRIDGEVILLE,PA,(412) 569-1180,
442,MONROEVILLE,"4100 WILLIAM PENN HIGHWAY, SUITE 43",MONROEVILLE,PA,(412) 357-1133,
448,MEDICAL CENTER (Signature),2130 W HOLCOMBE BLVD,HOUSTON,TX,(713) 666-7811,
452,SPRAYBERRY,2550 SANDY PLAINS RD,MARIETTA,GA,(678) 202-5178,
453,LANSING,17365 TORRENCE AVE,LANSING,IL,(708) 251-0173,
454,BALLARD (Signature),1416 NW BALLARD WAY,SEATTLE,WA,(206) 508-5030,
457,BLOOMFIELD HILLS,2050 SOUTH TELEGRAPH RD,BLOOMFIELD HILLS,MI,(248) 630-2720,
458,HURST,701 NE LOOP 820,HURST,TX,(817) 591-1158,
459,TROY - BIG BEAVER RD,710 E. BIG BEAVER ROAD,TROY,MI,(248) 434-0041,
460,BRAMPTON SOUTH (Premier Plus),539 STEELES AVENUE EAST,BRAMPTON,ON,(905) 452-7800,
463,CENTERVILLE,45 WEST ALEX BELL ROAD,CENTERVILLE,OH,(937) 684-8160,
464,OAKLEY,4700 MARBURG AVE,CINCINNATI,OH,(513) 297-1121,
465,NEWINGTON,3563 BERLIN TURNPIKE,NEWINGTON,CT,(860) 838-4239,
467,KENNESAW - WADE GREEN,4200 WADE GREEN RD SUITE 38,KENNESAW,GA,(678) 202-5179,
468,ST PAUL,1370 UNIVERSITY AVE WEST,ST PAUL,MN,(651) 222-9843,
469,FAIRFIELD TOWNSHIP,3312 PRINCETON ROAD,HAMILTON,OH,(513) 334-0082,
470,LIVONIA,30273 PLYMOUTH ROAD,LIVONIA,MI,(734) 956-9914,
471,AVON - ROCKVILLE RD,9030 ROCKVILLE ROAD,INDIANAPOLIS,IN,(317) 644-0200,
481,KITCHENER SUPER CLUB (Premier Plus),264 VICTORIA STREET N,KITCHENER,ON,(519) 741-0144,
482,MISSISSAUGA - ANNAGEM BLVD (Premier Plus),40 ANNAGEM BLVD,MISSISSAUGA,ON,(905) 696-6939,
487,SAUGUS,1450 BROADWAY,SAUGUS,MA,(781) 417-5050,
488,TACOMA NORTH- SIXTH AVE,5915 SIXTH AVE,TACOMA,WA,(253) 590-4118,
489,FT. MYERS SOUTH-GULF CENTER DR,10058 GULF CENTER DRIVE,FT. MYERS,FL,(239) 344-9600,
490,WOODBURY HEIGHTS,1006 MANTUA PIKE,WOODBURY,NJ,(856) 381-4941,
492,OCOEE,1560 E.SILVER STAR RD,OCOEE,FL,(407) 965-2139,
493,ROYAL OAK (Signature),25352 WOODWARD AVE,ROYAL OAK,MI,(248) 565-2750,
495,LEESBURG,1490 CLASSIC PATH WAY SE,LEESBURG,VA,(571) 223-5694,
498,NEW BRIGHTON,1101 SILVER LAKE ROAD,NEW BRIGHTON,MN,(651) 674-3186,
499,"ORANGE CITY, FL",2629 ENTERPRISE RD,ORANGE CITY,FL,(386) 878-4582,
500,FISHERS,11752 CUMBERLAND ROAD,FISHERS,IN,(317) 436-0013,
501,NORTH MIAMI,1801 NE 123RD ST SUITE 200,NORTH MIAMI,FL,(786) 718-1789,
502,ROCKVILLE (Signature),11416 ROCKVILLE PIKE SUITE A,ROCKVILLE,MD,(301) 761-0001,
505,HOUSTON GREENWAY (Signature),3838 RICHMOND AVE,HOUSTON,TX,(713) 481-1909,
506,DENTON,1350 SOUTH LOOP 288,DENTON,TX,(940) 380-2904,
508,SOMERDALE,711 EAST EVESHAM AVENUE BUILDING 1A,SOMERDALE,NJ,(856) 282-0380,
510,SOUTHFIELD,28661 TELEGRAPH ROAD,SOUTHFIELD,MI,(248) 436-0157,
514,CARMEL/ZIONSVILLE-N MICHIGAN RD,10574 WORKOUT WAY,CARMEL,IN,(317) 708-3862,
515,HOPKINS,1710 STATE HIGHWAY 7,HOPKINS,MN,(612) 246-3692,
517,WALPOLE,20 PROVIDENCE HIGHWAY,WALPOLE,MA,(508) 505-3020,
518,BLAINE,100 NORTHTOWN DRIVE NE,BLAINE,MN,(763) 392-1800,
520,LAVEEN,5175 W BASELINE RD,LAVEEN,AZ,(602) 904-7425,
521,ELDRIDGE LAKES,6386 NORTH ELDRIDGE PARKWAY,HOUSTON,TX,(713) 493-6907,
522,PORTLAND - SE82ND,4140 SE 82ND AVENUE,PORTLAND,OR,(503) 345-0782,
523,KENT,520 WASHINGTON AVE SOUTH,KENT,WA,(253) 859-7815,
524,PARSIPPANY,1159 US HIGHWAY 46,PARSIPPANY,NJ,(973) 588-9935,
525,VANCOUVER EAST,11505 NE FOURTH PLAIN RD,VANCOUVER,WA,(360) 859-0006,
526,BURNSVILLE,1801 COUNTY ROAD 42 WEST,BURNSVILLE,MN,(952) 392-4400,
527,CONYERS,1618 HIGHWAY 138,CONYERS,GA,(770) 760-1337,
528,WARREN,30195 MOUND RD,WARREN,MI,(586) 501-0008,
531,BEAVERCREEK/N FAIRFIELD,2500-F NORTH FAIRFIELD RD,BEAVERCREEK,OH,(937) 912-0063,
532,TUKWILA,350 BAKER BLVD,TUKWILA,WA,(206) 331-4071,
533,WEST CHESTER - TYLERSVILLE RD,7730 DUDLEY DRIVE,WEST CHESTER,OH,(513) 298-0134,
535,WESTFIELD - 146TH ST,2744 E. 146TH STREET,CARMEL,IN,(317) 973-0001,
536,ALLEN PARK,3223 FAIRLANE DRIVE,ALLEN PARK,MI,(313) 254-4411,
537,"HIGHLAND, CA",28015 GREENSPOT RD,HIGHLAND,CA,(909) 742-5131,
539,CRESCENT SPRINGS,550 CLOCK TOWER WAY,CRESCENT SPRINGS,KY,(859) 663-2920,
541,ARLINGTON - CLARK ST,3550 S CLARK STREET,ARLINGTON,VA,(703) 229-1504,
542,DALLAS LBJ @ WEBB CHAPEL,3029 FOREST LANE,DALLAS,TX,(972) 499-0720,
545,EASTON,340 SOUTH 25TH ST,EASTON,PA,(484) 541-4020,
546,SYMMES-HARPERS POINT,11359 MONTGOMERY ROAD,SYMMES,OH,(513) 297-1139,
547,PGA BLVD @ THE TURNPIKE,7070 FAIRWAY DRIVE,PALM BEACH GARDENS,FL,(561) 273-7080,
549,NEW TAMPA,6411 COUNTY LINE RD EAST,TAMPA,FL,(813) 435-6040,
550,WAUKEGAN,452 LAKEHURST RD,WAUKEGAN,IL,(224) 399-0990,
551,STONEHAM,121 MAIN STREET,STONEHAM,MA,(781) 435-5999,
552,MARY BRICKELL (Signature),900 SOUTH MIAMI AVE STE 236,MIAMI,FL,(786) 718-1750,
554,BRAMPTON NORTH (Premier Plus),2959 BOVAIRD DRIVE EAST,BRAMPTON,ON,(905) 789-6257,
555,LLOYD CENTER,1270 NE WEIDLER ST,PORTLAND,OR,(503) 734-2950,
559,BURLINGTON NORTH - APPLEBY LINE (Premier Plus),3011 APPLEBY LINE,BURLINGTON,ON,(905) 319-1771,
561,TOWNE LAKE,2060 EAGLE DRIVE,WOODSTOCK,GA,(678) 202-5612,
563,ST. LOUIS PARK,3555 S HIGHWAY 100,ST LOUIS PARK,MN,(763) 392-1802,
564,RIVERSIDE - ARLINGTON AVE.,3437 ARLINGTON AVE,RIVERSIDE,CA,(951) 231-2088,
565,ROBINSON TOWNSHIP,400 SETTLERS RIDGE CENTER DRIVE,PITTSBURGH,PA,(412) 620-1080,
566,SOUTH ELGIN,488 RANDALL RD,SOUTH ELGIN,IL,(630) 503-7749,
567,DOUGLASVILLE,3020 CHAPEL HILL RD,DOUGLASVILLE,GA,(678) 202-5613,
568,PATCHOGUE (Signature),5 GATEWAY BLVD,PATCHOGUE,NY,(631) 247-7001,
569,OAKDALE,7360 33RD STREET NORTH,OAKDALE,MN,(612) 225-9831,
570,COLLEGEVILLE,400 FRONT STREET SUITE #3,COLLEGEVILLE,PA,(484) 961-6012,
572,FT. WORTH/WEST 7TH STREET,2860 CROCKETT STREET,FORT WORTH,TX,(817) 870-1501,
574,WOODBRIDGE,13060 WORTH AVENUE,WOODBRIDGE,VA,(703) 398-1373,
575,N CORAL SPRINGS - CORAL RIDGE,5631 CORAL RIDGE DRIVE,CORAL SPRINGS,FL,(954) 752-9400,
576,STUART,1901 NW FEDERAL HWY,STUART,FL,(772) 209-3010,
577,DON MILLS (Signature),1380 DON MILLS ROAD,TORONTO,ON,(416) 391-0220,
581,MINNEAPOLIS UPTOWN,3001 HENNEPIN AVE SOUTH SUITE 2210,MINNEAPOLIS,MN,(612) 392-0395,
582,JERSEY VILLAGE,9244 W SAM HOUSTON PARKWAY N,HOUSTON,TX,(281) 640-9946,
583,POTTSTOWN,120 UPLAND SQUARE DRIVE SUITE 120,STOWE,PA,(484) 948-3168,
584,DALLAS-MOCKINGBIRD LN @ LEMMON,4540 WEST MOCKINGBIRD LANE,DALLAS,TX,(214) 453-4899,
585,PALM HARBOR,35104 U.S. HIGHWAY 19 NORTH,PALM HARBOR,FL,(727) 213-2458,
586,OAK LAWN,8812 SOUTH CICERO AVE,OAK LAWN,IL,(708) 931-0022,
587,LAKE WORTH,8888 LANTANA ROAD,LAKE WORTH,FL,(561) 273-7088,
588,OAK BROOK,2030 YORK ROAD,OAKBROOK,IL,(630) 684-0176,
592,LAWRENCE - PENDLETON PIKE,9930 PENDLETON PIKE,INDIANAPOLIS,IN,(317) 855-9012,
593,SECAUCUS (Signature),485 HARMON MEADOW,SECAUCUS,NJ,(201) 751-9940,
599,MORGAN PARK,11520 SOUTH MARSHFIELD AVE,CHICAGO,IL,(773) 905-0060,
600,BROADVIEW,200 BROADVIEW VILLAGE SQUARE,BROADVIEW,IL,(708) 273-6977,
601,COLLEGE PARK,6385 OLD NATIONAL HIGHWAY,ATLANTA,GA,(678) 304-2444,
602,LINDENHURST (Signature),455 PARK AVENUE,LINDENHURST,NY,(631) 412-6000,
603,PASADENA MD,8120 JUMPERS HOLE ROAD,PASADENA,MD,(443) 344-0213,
605,KENNESAW-BARRETT,1185 ERNEST BARRETT PKWY NW,KENNESAW,GA,(678) 202-5503,
606,BROOKHAVEN,755 BROOKHAVEN AVE,ATLANTA,GA,(678) 280-8844,
607,FT LAUDERDALE / CYPRESS CREEK,6501 NORTH ANDREWS AVE,FT LAUDERDALE,FL,(954) 495-2288,
608,DOWNINGTOWN,109 QUARRY ROAD,DOWNINGTOWN,PA,(484) 237-2012,
609,NAPLES @ VANDERBILT BEACH RD,871 VANDERBILT BEACH RD,NAPLES,FL,(239) 249-6768,
610,"HIGHLAND PARK, IL",115 SKOKIE VALLEY ROAD,HIGHLAND PARK,IL,(847) 315-9029,
611,PHILADELPHIA - GRANT AVE,2560 GRANT AVENUE,PHILADELPHIA,PA,(267) 344-1452,
612,ABINGTON,371 HIGHLAND AVE,GLENSIDE,PA,(215) 277-2032,
614,CLIFTON (Signature),852 ROUTE 3,CLIFTON,NJ,(973) 574-4175,
616,MARANA,5885 W ARIZONA PAVILIONS DR,MARANA,AZ,(520) 342-0809,
617,NORTH HILLS,8700 DUNCAN AVENUE,PITTSBURGH,PA,(412) 204-4023,
618,MIDTOWN,75 FIFTH STREET  NW SUITE E,ATLANTA,GA,(404) 212-1065,
619,HARBOR CITY,908 W SEPULVEDA BLVD,HARBOR CITY,CA,(424) 203-2060,
620,ST. PETERSBURG @ 22ND AVE NORTH,7044 22ND AVENUE NORTH,ST. PETERSBURG,FL,(727) 322-4010,
621,EAST BRUNSWICK - STATE ROUTE 18,341 STATE ROUTE 18,EAST BRUNSWICK,NJ,(732) 353-3081,
622,MISSION VIEJO -ALICIA PWY,24491 ALICIA PARKWAY,MISSION VIEJO,CA,(949) 421-6082,
623,LONG BEACH/BELLFLOWER,2180 N BELLFLOWER BLVD,LONG BEACH,CA,(562) 314-1820,
627,BRAMPTON NW (Premier Plus),225 FLETCHER'S CREEK BLVD,BRAMPTON,ON,(905) 454-1991,
628,GREENSBURG,3000 LINCOLN PLACE,GREENSBURG,PA,(724) 261-3301,
629,LEVITTOWN (Signature),3601-C HEMPSTEAD TURNPIKE,LEVITTOWN,NY,(516) 342-8135,
630,HIALEAH/W 49TH ST,630 W 49TH STREET,HIALEAH,FL,(786) 369-0318,
631,SANDY SPRINGS,6690 ROSWELL ROAD,SANDY SPRINGS,GA,(404) 478-4161,
632,TRUMBULL,5065 MAIN STREET,TRUMBULL,CT,(203) 683-1321,
633,VALRICO @ STATE ROAD 60 E,1930 STATE ROAD 60 E,VALRICO,FL,(813) 982-4149,
634,RENTON/FAIRWOOD,14060 SE PETROVITSKY RD,RENTON,WA,(425) 529-9303,
636,WOODLAND HILLS (Signature),6401 CANOGA AVE,WOODLAND HILLS,CA,(818) 224-7820,
637,IRVINE - CROSSROADS,3960 BARRANCA PKWY,IRVINE,CA,(949) 502-2777,
651,SARASOTA BEE RIDGE @ I-75,4057 CATTLEMEN ROAD,SARASOTA,FL,(941) 225-4772,
652,TUCSON - S CALLE SANTA CRUZ,5325 S CALLE SANTA CRUZ,TUCSON,AZ,(520) 342-0808,
653,STOUGHTON,3 HAWES WAY,STOUGHTON,MA,(781) 573-0172,
654,VAUGHAN (Premier Plus),9350 BATHURST STREET,VAUGHAN,ON,(289) 963-9980,
655,PEORIA WEST - N 91ST,8160 N 91ST AVENUE,PEORIA,AZ,(623) 877-3640,
660,MARIETTA SOUTH,"1453 TERRELL MILL ROAD, SUITE 145",MARIETTA,GA,(678) 279-2843,
662,SCARBOROUGH (Premier Plus),1970 EGLINTON AVE EAST,TORONTO,ON,(647) 724-4019,
663,MISSION VIEJO/CROWN VALLEY,27741 CROWN VALLEY PARKWAY #101,MISSION VIEJO,CA,(949) 203-8805,
664,LAUREL,327 MONTROSE AVE,LAUREL,MD,(240) 294-5867,
665,DULUTH - PEACHTREE INDUSTRIAL,3455 PEACHTREE INDUSTRIAL BLVD,DULUTH,GA,(770) 285-2046,
666,PITTSBURGH/SOUTHSIDE WORKS,2701 EAST CARSON STREET,PITTSBURGH,PA,(412) 360-0256,
668,EAST GWILLIMBURY (Premier Plus),18367 YONGE STREET,EAST GWILLIMBURY,ON,(289) 803-0327,
673,WESTHEIMER @ GESSNER,9603 WESTHEIMER ROAD,HOUSTON,TX,(713) 470-4098,
679,ATLANTIC @ KERNAN,11901 ATLANTIC BLVD STE 800,JACKSONVILLE,FL,(904) 596-0080,
680,PORT CHESTER (Signature),260 BOSTON POST RD,PORT CHESTER,NY,(914) 233-2211,
681,GAITHERSBURG - QUINCE ORCHARD,602 QUINCE ORCHARD RD,GAITHERSBURG,MD,(301) 987-5421,
682,FT. LAUDERDALE - SE 10TH AVE.,1900 SE 10TH AVE,FORT LAUDERDALE,FL,(954) 233-5526,
684,BELLEVUE/KELSEY CREEK,15053 MAIN STREET,BELLEVUE,WA,(425) 698-2575,
685,CENTEREACH (Signature),1934 MIDDLE COUNTRY ROAD,CENTEREACH,NY,(631) 820-4604,
686,IRONDEQUOIT,1600 EAST RIDGE ROAD,ROCHESTER,NY,(585) 797-0414,
687,PHOENIX-NORTHERN AVE,2200 W NORTHERN AVE,PHOENIX,AZ,(602) 995-1234,
688,TROY - W. MAPLE RD. (Signature),3501 WEST MAPLE ROAD SUITE A,TROY,MI,(248) 430-0584,
689,PORT JEFFERSON STATION (Signature),1046 ROUTE 112,PORT JEFFERSON STATION,NY,(631) 403-3002,
690,JACKSONVILLE LAKEWOOD,3600 UNIVERSITY BLVD WEST,JACKSONVILLE,FL,(904) 900-6393,
691,ATLANTIC BEACH,985 ATLANTIC BLVD,ATLANTIC BEACH,FL,(904) 853-2210,
692,CHICAGO - S. LAKE PARK (Signature),5224 S LAKE PARK AVE,CHICAGO,IL,(773) 358-4228,
693,KIRKLAND TOTEM LAKE @ I-405 (Signature),12321 120TH PLACE NE,KIRKLAND,WA,(425) 298-1331,
694,YONKERS (Signature),"77 COLE STREET, SPACE 1290",YONKERS,NY,(914) 297-4477,
695,WINDERMERE (Signature),4768 THE GROVE DRIVE,WINDERMERE,FL,(407) 612-6001,
696,DALLAS UPTOWN (Signature),2690 N HASKELL AVE,DALLAS,TX,(214) 530-0005,
697,STEVENSON RANCH,24945 PICO CANYON RD,STEVENSON RANCH,CA,(661) 219-0722,
698,TUCSON SE - EAST GOLF LINKS,9350 EAST GOLF LINKS RD,TUCSON,AZ,(520) 399-8244,
699,RICHFIELD,6501 LYNDALE AVENUE S,RICHFIELD,MN,(612) 861-5505,
700,WEST DUNDEE,400 NORTH EIGHTH STREET,WEST DUNDEE,IL,(847) 915-3256,
701,OCEANSIDE - VISTA WAY,2335 VISTA WAY,OCEANSIDE,CA,(760) 576-3188,
702,STONE MOUNTAIN,5295 STONE MOUNTAIN HIGHWAY,STONE MOUNTAIN,GA,(770) 469-2120,
703,HOUSTON 290 @ HOLLISTER,13350 NORTHWEST FREEWAY,HOUSTON,TX,(713) 470-9465,
704,LAKE ZURICH,825 SOUTH RAND ROAD,LAKE ZURICH,IL,(847) 719-8475,
705,GREECE,1867 W RIDGE RD,GREECE,NY,(585) 441-3899,
706,MILFORD,1201 BOSTON POST ROAD SPACE 2090,MILFORD,CT,(203) 701-4827,
711,CORAL GABLES,3301 SW 22ND STREET,MIAMI,FL,(305) 445-7140,
713,HIALEAH-PALMETTO EXPY,1901 WEST 39TH STREET,HIALEAH,FL,(305) 822-0227,
717,MIAMI-SW 56TH ST,13838 S.W. 56TH STREET,MIAMI,FL,(305) 380-6969,
721,CHICAGO - LAKEVIEW EAST,2828 NORTH CLARK STREET,CHICAGO,IL,(773) 929-6900,
724,HOLLYWOOD-EL CENTRO AVE,1628 N. EL CENTRO AVENUE,LOS ANGELES,CA,(323) 461-0227,
729,LANSDOWNE,3551 WASHINGTON BLVD,LANSDOWNE,MD,(410) 242-2062,
731,HUNTINGTON PARK,3081 E. SLAUSON AVENUE,HUNTINGTON PARK,CA,(323) 589-8935,
733,INGLEWOOD,3531 W. CENTURY BOULEVARD,INGLEWOOD,CA,(310) 672-6002,
737,LONG BEACH-PCH,4438 E. PACIFIC COAST HWY.,LONG BEACH,CA,(562) 494-1216,
738,CHICAGO - ROGERS PARK,7529 NORTH CLARK STREET,CHICAGO,IL,(773) 274-1686,
745,MONTCLAIR,9385 MONTE VISTA,MONTCLAIR,CA,(909) 625-2411,
748,MONTEBELLO,2222 WEST BEVERLY BLVD.,MONTEBELLO,CA,(323) 722-0994,
751,NORTH HOLLYWOOD,13069 VICTORY BOULEVARD,NORTH HOLLYWOOD,CA,(818) 506-4208,
758,COUNTRYSIDE,5917 SO. LA GRANGE ROAD,COUNTRYSIDE,IL,(708) 482-4700,
759,LONG BEACH-DOWNEY AVE,5810 DOWNEY AVENUE,LONG BEACH,CA,(562) 272-7255,
761,CHICAGO - NORWOOD PARK,5444 N CUMBERLAND AVE,CHICAGO,IL,(773) 380-8600,
772,PALOS VERDES,28901 S. WESTERN AVENUE,RANCHO PALOS VERDES,CA,(310) 732-2100,
773,ST CLAIR SHORES,20701 E. EIGHT MILE ROAD,ST. CLAIR SHORES,MI,(586) 772-0005,
776,HYATTSVILLE,2970 BELCREST CENTER DRIVE,HYATTSVILLE,MD,(301) 559-5031,
778,CITY OF INDUSTRY,1545 HANOVER ROAD,CITY OF INDUSTRY,CA,(626) 839-3222,
780,WHEATON,11010 VEIRS MILL ROAD,WHEATON,MD,(301) 933-6100,
781,WHITE MARSH,8221 TOWN CENTER DRIVE,NOTTINGHAM,MD,(410) 931-8080,
782,RANCHO CUCAMONGA,10848 FOOTHILL BOULEVARD,RANCHO CUCAMONGA,CA,(909) 948-7583,
788,GREENBELT MD,7415 GREENBELT ROAD,GREENBELT,MD,(301) 441-8300,
790,CHATSWORTH,9143 DE SOTO AVENUE,CHATSWORTH,CA,(818) 882-5912,
792,NORTH BERGEN,3137 KENNEDY BOULEVARD,NORTH BERGEN,NJ,(201) 974-9010,
793,ROSEMEAD,3508 ROSEMEAD BOULEVARD,ROSEMEAD,CA,(626) 571-0228,
795,MIAMI - AVENTURA,3455 NE 207TH STREET,MIAMI,FL,(305) 931-3181,
797,SOUTHLAND-TPKE / S DIXIE,20505 SOUTH DIXIE HIGHWAY,MIAMI,FL,(305) 232-5500,
803,SANTA ANA-BRISTOL / MACARTHUR,3701 S. PLAZA DRIVE,SANTA ANA,CA,(714) 557-3550,
817,WEST COVINA- N AZUSA AVE,441 NORTH AZUSA AVENUE,WEST COVINA,CA,(626) 966-7532,
820,WEST LA/ BUNDY,1914 SOUTH BUNDY DRIVE,LOS ANGELES,CA,(310) 820-7571,
821,ALEXANDRIA,6200 LITTLE RIVER TURNPIKE,ALEXANDRIA,VA,(703) 637-2204,
827,CULVER CITY,3827 OVERLAND AVENUE,CULVER CITY,CA,(310) 204-2030,
830,NATIONAL CITY,1910 SWEETWATER ROAD,NATIONAL CITY,CA,(619) 474-6392,
832,PHILADELPHIA-24TH ST,2425 SOUTH 24TH STREET,PHILADELPHIA,PA,(215) 468-6741,
833,DOWNEY-LAKEWOOD BLVD,12074 LAKEWOOD BOULEVARD,DOWNEY,CA,(562) 803-3432,
838,PHILADELPHIA-FRANKLIN MILLS,851 FRANKLIN MILLS CIRCLE,PHILADELPHIA,PA,(215) 637-1580,
847,"WESTCHESTER, CA",8601 LINCOLN BLVD,WESTCHESTER,CA,(310) 846-0070,
848,SMITHTOWN (Signature),122 EAST MAIN STREET,SMITHTOWN,NY,(631) 982-8010,
867,ORANGE PARK BLANDING @ 295,6000 LAKE GRAY BLVD,JACKSONVILLE,FL,(904) 999-3289,
868,RANDOLPH,140 STATE HIGHWAY 10,RANDOLPH,NJ,(973) 500-3077,
900,HENRIETTA,100 MARKETPLACE DRIVE,HENRIETTA,NY,(585) 797-0411,
901,BUFFALO - ELMWOOD AVE,1893 ELMWOOD AVE SUITE 200,BUFFALO,NY,(716) 541-1092,
902,CLARENCE,5089 TRANSIT ROAD,BUFFALO,NY,(716) 810-1004,
903,BEVERLY HILLS - WILSHIRE BLVD. (Signature),9100 WILSHIRE BLVD STE 100E,BEVERLY HILLS,CA,(310) 734-0942,
906,UNIVERSITY PARK - COOPER CREEK,8502 COOPER CREEK BLVD,UNIVERSITY PARK,FL,(941) 926-6282,
907,WHITTIER,13806 WHITTIER BLVD,WHITTIER,CA,(562) 332-6205,
908,LYNNWOOD/HWY 99,19800 HIGHWAY 99,LYNNWOOD,WA,(425) 245-0673,
909,NIAGARA FALLS - NY,6610 NIAGARA FALLS BLVD,NIAGARA FALLS,NY,(716) 205-3333,
910,DALLAS - GREENVILLE AVE.,"5500 GREENVILLE AVE, SUITE 100",DALLAS,TX,(214) 530-0966,
911,PHOENIX WEST CAMELBACK @7TH AVE,710 WEST CAMELBACK ROAD,PHOENIX,AZ,(602) 282-0243,
912,COMMACK (Signature),68 VETERANS MEMORIAL HIGHWAY,COMMACK,NY,(631) 623-5216,
914,GARDEN CITY (Signature),711 STEWART AVE,GARDEN CITY,NY,(516) 214-9691,
915,TOLLESON,9880 WEST LOWER BUCKEYE ROAD,TOLLESON,AZ,(602) 734-1363,
916,CHICAGO - LAWRENCE AVE.,1804 WEST LAWRENCE AVE,CHICAGO,IL,(773) 250-0298,
917,IRVINE - MICHELSON DR (Signature),3021 MICHELSON DRIVE,IRVINE,CA,(949) 988-5372,
918,TAMPA-S DALE MABRY HWY (Signature),301 S DALE MABRY HWY,TAMPA,FL,(813) 775-6492,
919,HAWTHORNE - 147TH ST.,4949 WEST 147TH STREET,HAWTHORNE,CA,(310) 844-0653,
920,INDIANAPOLIS SHORE DR - 38TH ST,4015 SHORE DRIVE,INDIANAPOLIS,IN,(317) 238-3163,
921,PHOENIX BASELINE @ 24TH STREET,2325 E BASELINE RD,PHOENIX,AZ,(623) 255-3391,
923,SAN ANTONIO LOOP 410 @ BLANCO,7140 BLANCO ROAD,SAN ANTONIO,TX,(210) 853-0627,
924,ORLANDO - GOLDENROD RD.,5915 SOUTH GOLDENROD ROAD,ORLANDO,FL,(407) 362-6081,
925,GARLAND - W. CENTERVILLE RD.,1201 W CENTERVILLE ROAD,GARLAND,TX,(972) 271-4614,
926,MAPLEWOOD,1940 COUNTY ROAD D EAST,MAPLEWOOD,MN,(651) 355-1655,
927,OSHAWA - RITSON RD. (Premier Plus),1189 RITSON ROAD NORTH UNIT 4A,OSHAWA,ON,(289) 634-3190,
930,MILTON - MAPLE AVE (Premier Plus),1117 MAPLE AVE,MILTON,ON,(289) 270-4133,
931,BRONX - EASTCHESTER RD. (Signature),1776 EASTCHESTER ROAD,BRONX,NY,(917) 634-5609,
932,WEST SEATTLE/ SW ALASKA ST (Signature),3900 SW ALASKA STREET,SEATTLE,WA,(206) 582-0888,
934,APOPKA,3030 E. SEMORAN BLVD.,APOPKA,FL,(407) 772-4660,
940,TAMPA - GUNN HWY.,5735 GUNN HIGHWAY,TAMPA,FL,(813) 960-3783,
948,LAKE MARY,3851 LAKE EMMA RD.,LAKE MARY,FL,(407) 804-2528,
949,LUTZ @ STATE ROAD 54,23048 STATE ROAD 54,LUTZ,FL,(813) 948-4040,
950,NAPLES @ GOLDEN GATE / 68TH ST,6800 GOLDEN GATE PARKWAY,NAPLES,FL,(239) 643-7546,
951,ST. PETERSBURG @ 4TH ST. NORTH,5900 4TH ST. N.,ST. PETERSBURG,FL,(727) 521-1500,
955,LAKELAND @ SOUTH FLORIDA AVE,4764 SOUTH FLORIDA AVE.,LAKELAND,FL,(863) 644-3030,
961,TAMPA @ WEST HILLSBOROUGH AVE,11252 WEST HILLSBOROUGH AVE.,TAMPA,FL,(813) 814-1414,
962,WINTER GARDEN,3029 DANIELS RD.,WINTER GARDEN,FL,(407) 877-0680,
964,WINTER PARK @ ORLANDO / WEBSTER,"501 NORTH ORLANDO AVE., UNIT #219",WINTER PARK,FL,(407) 628-9307,
966,SAN ANTONIO - BABCOCK RD.,5803 BABCOCK RD,SAN ANTONIO,TX,(210) 202-3139,
967,GAITHERSBURG - COPLEY PLACE,314 COPLEY PLACE,GAITHERSBURG,MD,(301) 944-5734,
968,DECATUR - COVINGTON HWY,6088 COVINGTON HIGHWAY,DECATUR,GA,(770) 308-0238,
969,ORO VALLEY,8850 N ORACLE RD,ORO VALLEY,AZ,(520) 918-4386,
970,MESA - N. POWER RD.,2605 NORTH POWER ROAD,MESA,AZ,(480) 296-0242,
971,PLANTATION - S. UNIVERSITY DR.,1041 SOUTH UNIVERSITY DR,PLANTATION,FL,(954) 646-5971,
973,MT PROSPECT PLAZA,1145 MT PROSPECT PLAZA,MT PROSPECT,IL,(847) 463-9295,
974,PLAYA VISTA,5570 LINCOLN BLVD,PLAYA VISTA,CA,(310) 881-3460,
975,CRANSTON,190 HILLSIDE RD,CRANSTON,RI,(401) 854-0330,
976,MORENO VALLEY - EUCALYPTUS AVE.,27610 EUCALYPTUS AVE,MORENO VALLEY,CA,(951) 571-8039,
977,ATLANTA-PEACHTREE RD,3535 PEACHTREE ROAD NE SUITE 300,ATLANTA,GA,(404) 389-1143,
979,LEXINGTON-WELLINGTON WAY,1028 WELLINGTON WAY,LEXINGTON,KY,(859) 219-9558,
980,LEXINGTON-BLAKE JAMES DR,3001 BLAKE JAMES DR,LEXINGTON,KY,(859) 269-2492,
983,LOUISVILLE-SHELBYVILLE RD,4900 SHELBYVILLE ROAD,LOUISVILLE,KY,(502) 894-9911,
984,LOUISVILLE-TAYLORSVILLE RD,4620 TAYLORSVILLE ROAD,LOUISVILLE,KY,(502) 671-8233,
985,BELLEVUE-FAIRFIELD AVE,119 FAIRFIELD AVE STE 200,BELLEVUE,KY,(859) 957-2700,
987,FLORENCE-MEIJER DR,430 MEIJER DRIVE,FLORENCE,KY,(859) 746-9201,
989,CHARLOTTE-COPPER WAY,12325 COPPER WAY,CHARLOTTE,NC,(704) 247-9090,
990,WESTLAKE - CROCKER PARK,131 MARKET STREET,WESTLAKE,OH,(440) 892-4653,
991,LYNDHURST - LEGACY VILLAGE,25145 CEDAR ROAD,LYNDHURST,OH,(216) 291-8555,
995,KENWOOD/MONTGOMERY RD,8129 MONTGOMERY ROAD,CINCINNATI,OH,(513) 791-4444,
996,WEST CHESTER - UNION CENTRE,9282 ALLEN ROAD,WEST CHESTER,OH,(513) 895-4653,
998,COLUMBUS-BRITTON PKWY,5750 BRITTON PARKWAY,COLUMBUS,OH,(614) 339-1343,
999,COLUMBUS-GRACELAND BLVD,260 GRACELAND BLVD,COLUMBUS,OH,(614) 310-0770,
1000,COLUMBUS-GOODALE BLVD,850 GOODALE BLVD,COLUMBUS,OH,(614) 643-0070,
1001,GROVE CITY-BUCKEYE HWY,4178 BUCKEYE PARKWAY,GROVE CITY,OH,(614) 317-9961,
1002,HILLIARD-TANGLEWOOD PARK BLVD,1800 TANGLEWOOD PARK BLVD,HILLIARD,OH,(614) 850-8888,
1003,COLUMBUS OLD HAMILTON RD,5959 OLD HAMILTON RD,COLUMBUS,OH,(614) 476-4653,
1004,COLUMBUS-POLARIS PKWY,2100 POLARIS PARKWAY,COLUMBUS,OH,(614) 430-9210,
1005,POWELL-SAWMILL DR,3474 SAWMILL DRIVE,POWELL,OH,(614) 336-7774,
1006,BEAVERCREEK AT THE GREENE,4494 WALNUT STREET,BEAVERCREEK,OH,(937) 427-0700,
1007,MAUMEE-CONANT ST,1361 CONANT STREET,MAUMEE,OH,(419) 482-7740,
1008,TOLEDO-HOLLAND SYLVANIA RD,2859 N HOLLAND SYLVANIA ROAD,TOLEDO,OH,(419) 535-6669,
1009,PITTSBURGH-PENN AVE (Signature),6425 PENN AVE,PITTSBURGH,PA,(412) 204-0055,
1013,FARMINGTON,1600  SOUTHEAST ROAD,FARMINGTON,CT,(860) 321-2062,
1017,"BROOKLYN CTR- SHINGLE CREEK, MN",1500 SHINGLE CREEK CROSSING,BROOKLYN CENTER,MN,(763) 567-2037,
1018,WEST PALM BEACH-S ROSEMARY AV,"700 S ROSEMARY AVE, UNIT 104",WEST PALM BEACH,FL,(561) 402-8202,
1019,MIAMI - W. FLAGLER ST,9291 W FLAGLER ST,MIAMI,FL,(305) 925-0868,
1020,MELBOURNE - WICKHAM RD.,2447 N WICKHAM RD SUITE 102,MELBOURNE,FL,(321) 216-2280,
1022,WEST COVINA - E. GARVEY AVE.,3101 E. GARVEY AVE. N.,WEST COVINA,CA,(626) 251-2133,
1023,GLENDALE - BRAND BLVD.,144 S BRAND BLVD,GLENDALE,CA,(818) 638-1762,
1024,STERLING HEIGHTS - MOUND RD.,44777 MOUND ROAD,STERLING HEIGHTS,MI,(586) 930-0008,
1025,PASADENA - ROSEMEAD BLVD.,355 N ROSEMEAD BLVD,PASADENA,CA,(626) 264-9138,
1026,"SPRINGFIELD-WABASH AVE, IL",2501 WABASH AVE,SPRINGFIELD,IL,(217) 801-9007,
1027,FARMINGVILLE (Signature),2280 NORTH OCEAN AVE SUITE A,FARMINGVILLE,NY,(631) 496-3009,
1028,DELRAY BEACH,1660 S FEDERAL HIGHWAY,DELRAY BEACH,FL,(561) 270-1001,
1029,STATEN ISLAND - RICHMOND AVE. (Signature),3231 RICHMOND AVE,STATEN ISLAND,NY,(718) 569-5882,
1031,HOUSTON TX - N SHEPHERD DR,4412 NORTH SHEPHERD DRIVE,HOUSTON,TX,(713) 904-7543,
1032,"WEST CHESTER-PAOLI PIKE, PA",975 PAOLI PIKE,WEST CHESTER,PA,(610) 235-2788,
1033,BLOOMINGTON,2103 NORTH VETERANS PARKWAY,BLOOMINGTON,IL,(309) 319-9040,
1034,AUSTIN - ANDERSON LANE,2020 W ANDERSON LANE,AUSTIN,TX,(512) 831-3393,
1035,AUSTIN - S. LAMAR BLVD.,4001 S LAMAR BLVD,AUSTIN,TX,(512) 652-5779,
1036,CLINTON TOWNSHIP,17500 HALL ROAD,CLINTON TOWNSHIP,MI,(586) 913-8587,
1037,NOBLESVILLE - MERCANTILE BLVD.,16640 MERCANTILE BLVD,NOBLESVILLE,IN,(317) 774-0900,
1038,LITTLE ROCK - S. UNIVERSITY AVE,304 S UNIVERSITY AVE,LITTLE ROCK,AR,(501) 707-3561,
1040,ORANGE PARK - BLANDING BLVD.,"661 BLANDING BLVD, SUITE 800",ORANGE PARK,FL,(904) 579-2329,
1041,CHANDLER - ARIZONA AVE,3985 S ARIZONA AVE,CHANDLER,AZ,(480) 426-7819,
1044,MANASSAS,9946 LIBERIA AVE,MANASSAS,VA,(703) 334-0439,
1045,TOWSON,435 YORK ROAD #300,TOWSON,MD,(410) 842-1872,
1046,GROSSE POINTE WOODS,22327 MOROSS ROAD,DETROIT,MI,(313) 732-9188,
1047,BURIEN,14905 4TH AVE. SW,BURIEN,WA,(206) 701-3446,
1048,HOUSTON - YALE AND KATY FWY.,195 YALE ST,HOUSTON,TX,(713) 401-2840,
1049,CHICAGO IL - N. BROADWAY,6107 NORTH BROADWAY STREET,CHICAGO,IL,(773) 250-1708,
1050,OWINGS MILLS,10040 REISTERSTOWN ROAD,OWINGS MILLS,MD,(443) 641-0138,
1051,BARRIE - LIVE EIGHT WAY (Premier Plus),149 LIVE EIGHT WAY,BARRIE,ON,(705) 302-2371,
1052,INDIANAPOLIS - E. WASHINGTON ST,9529 EAST WASHINGTON STREET,INDIANAPOLIS,IN,(317) 829-0022,
1053,MARLBORO,50 WATKINS PARK DRIVE,UPPER MARLBORO,MD,(301) 909-7669,
1056,"SPRINGFIELD TOWN CENTER, VA",6565 SPRINGFIELD MALL,SPRINGFIELD,VA,(703) 682-2861,
1057,ORLANDO METRO WEST,4792 S. KIRKMAN ROAD,ORLANDO,FL,(407) 362-0645,
1058,BOWIE,15401 EMERALD WAY,BOWIE,MD,(301) 867-6623,
1059,DECATUR - CHURCH ST,1496 CHURCH ST,DECATUR,GA,(404) 267-2723,
1060,LARGO - MISSOURI AVE.,1229 MISSOURI AVE N,LARGO,FL,(727) 559-2001,
1061,CHICAGO - KEDZIE AVE,5559 S KEDZIE AVE,CHICAGO,IL,(312) 288-3048,
1062,GLENDALE HEIGHTS,265 EAST ARMY TRAIL ROAD,GLENDALE HEIGHTS,IL,(630) 893-0600,
1065,QUEENS - SOUTH CONDUIT (Signature),"133-40 79TH STREET, UNIT B",HOWARD BEACH,NY,(347) 817-7632,
1066,PORT ORANGE,1810 DUNLAWTON AVE,PORT ORANGE,FL,(386) 682-2509,
1068,WARWICK - BALD HILL RD.,1500 BALD HILL ROAD,WARWICK,RI,(401) 773-2933,
1069,NIAGARA FALLS - CANADA (Premier Plus),6767 MORRISON ST,NIAGARA FALLS,ON,(289) 932-3584,
1070,LITTLE ROCK - CHENAL PKWY,11700 CHENAL PARKWAY,LITTLE ROCK,AR,(501) 707-1121,
1071,PORT ST LUCIE - ST LUCIE W BLVD,1367 NW ST LUCIE WEST BLVD,PORT ST LUCIE,FL,(772) 224-3950,
1072,AMHERST,3040 SHERIDAN DRIVE,AMHERST,NY,(716) 541-0648,
1073,ROUND ROCK - RURAL RD. 620,16600 N RM 620 ROAD,ROUND ROCK,TX,(512) 765-7734,
1074,GLENVIEW - WILLOW RD.,3880 WILLOW ROAD,GLENVIEW,IL,(847) 597-4373,
1075,SCARBOROUGH-WILLIAM KITCHEN RD (Premier Plus),"33 WILLIAM KITCHEN RD, BUILDING J UNIT 5",SCARBOROUGH,ON,(647) 556-1418,
1076,EDMONTON - 186TH ST. NW (Premier Plus),10167 186TH ST NW,EDMONTON,AB,(780) 666-4150,
1081,SAN ANTONIO - NW LOOP 410,7427 NW LOOP 410,SAN ANTONIO,TX,(210) 527-8499,
1082,STRATFORD,411 BARNUM AVE CUT-OFF,STRATFORD,CT,(203) 212-5491,
1084,COLUMBUS - EAST BROAD ST.,6585 EAST BROAD STREET,COLUMBUS,OH,(614) 892-7092,
1085,CUYAHOGA FALLS,1969 PORTAGE TRAIL,CUYAHOGA FALLS,OH,(330) 622-4111,
1086,RIVERSIDE - MAGNOLIA AVE,10988 MAGNOLIA AVE,RIVERSIDE,CA,(951) 774-4267,
1087,EDMONTON - CALGARY TRAIL NW (Premier Plus),4223 CALGARY TRAIL,EDMONTON,AB,(780) 666-4149,
1088,TORONTO - DANFORTH AVE (Premier Plus),3003 DANFORTH AVE UNIT 40-42,TORONTO,ON,(647) 557-9963,
1089,CHICAGO - S. MARTIN LUTHER KING,3435 SOUTH DR MARTIN LUTHER KING JR DRIVE,CHICAGO,IL,(312) 821-7972,
1090,BURLINGTON - BRANT ST. (Premier Plus),1326 BRANT ST,BURLINGTON,ON,(289) 812-0617,
1092,N. LITTLE ROCK-LAKEWOOD VILLAGE,2939 LAKEWOOD VILLAGE DR,N. LITTLE ROCK,AR,(501) 708-0878,
1094,MARKHAM - WOODBINE AVE (Premier Plus),8555 WOODBINE AVE,MARKHAM,ON,(289) 301-4273,
1095,TUALATIN,7405 SW NYBERG STREET,TUALATIN,OR,(503) 404-0126,
1096,GLASSBORO,731 DELSEA DRIVE N.,GLASSBORO,NJ,(856) 556-1071,
1097,CAMBRIDGE (Premier Plus),90 PINEBUSH RD,CAMBRIDGE,ON,(226) 533-9674,
1098,CLARK (Signature),1255 RARITAN RD SUITE 720,CLARK,NJ,(732) 943-9008,
1099,ALEXANDRIA - BEULAH ST,7867 HENESKA LOOP,ALEXANDRIA,VA,(571) 302-8389,
1100,AUSTELL - AUSTELL RD,"3999 AUSTELL ROAD, SUITE 101",AUSTELL,GA,(678) 224-9091,
1101,AURORA - BAYVIEW AVE (Premier Plus),15650 BAYVIEW AVENUE,AURORA,ON,(289) 648-3973,
1102,WEBSTER,929 HOLT ROAD,WEBSTER,NY,(585) 236-4359,
1103,LARGO E BAY DRIVE,5320 EAST BAY DRIVE,CLEARWATER,FL,(727) 451-9650,
1104,HAMBURG - MCKINLEY PARKWAY,3701 MCKINLEY PARKWAY,BLASDELL,NY,(716) 249-3190,
1105,LAKELAND - US HWY 64,8864 US HIGHWAY 64,LAKELAND,TN,(901) 291-1113,
1106,MEMPHIS - POLO GROUNDS BLVD,7630 POLO GROUNDS BLVD,MEMPHIS,TN,(901) 291-1101,
1107,EDMONTON - 167TH AVE. NW (Premier Plus),12410 167 AVENUE NW,EDMONTON,AB,(780) 666-4155,
1108,NORTH YORK - YONGE ST (Signature),4861 YONGE ST,TORONTO,ON,(437) 886-6211,
1109,MELBOURNE - HOLLYWOOD BLVD,4454 HOLLYWOOD BLVD,WEST MELBOURNE,FL,(321) 373-0049,
1111,BUFFALO - DELAWARE AVE,69 DELAWARE AVENUE,BUFFALO,NY,(716) 845-6660,
1121,BOTHELL - 220TH ST SE,1629 220TH ST SE,BOTHELL,WA,(425) 483-3330,
1123,SEATTLE - 31ST AVE NE,12015 31ST AVE NE,SEATTLE,WA,(206) 417-4715,
1125,KIRKLAND - JUANITA DR,14130 JUANITA DRIVE NE,KIRKLAND,WA,(425) 821-6004,
1126,WINSTON-SALEM STRATFORD RD,240 HARVEY STREET,WINSTON-SALEM,NC,(336) 934-8520,
1127,MISSISSAUGA - DIXIE RD (Premier Plus),"3100 DIXIE ROAD, UNIT 14A",MISSISSAUGA,ON,(289) 724-0135,
1128,KISSIMMEE,1750 BALL PARK ROAD,KISSIMMEE,FL,(407) 452-3064,
1129,"BROOKLYN - TIEDEMAN, OH",5000 TIEDEMAN ROAD,BROOKLYN,OH,(216) 912-1537,
1130,BATON ROUGE - PERKINS ROWE,10000 PERKINS ROWE,BATON ROUGE,LA,(225) 663-7969,
1131,DULUTH - PLEASANT HILL RD,1625 PLEASANT HILL RD # 245,DULUTH,GA,(678) 259-2309,
1132,CHICAGO - W. PERSHING RD,2620 W PERSHING ROAD,CHICAGO,IL,(872) 444-3746,
1133,BALDWIN PARK - E GARVEY AVE,13822 GARVEY AVE,BALDWIN PARK,CA,(626) 521-5293,
1134,BRADENTON - CORTEZ RD. WEST,1005 CORTEZ ROAD WEST,BRADENTON,FL,(941) 251-8148,
1135,SAN ANTONIO - BULVERDE RD,17138 AUTRY POND RD,SAN ANTONIO,TX,(210) 547-3400,
1136,WASHINGTON DC - CONNECTICUT AVE,1101 CONNECTICUT AVE NW,WASHINGTON,DC,(202) 331-7788,
1137,CUMMING,540 LAKELAND PLAZA,CUMMING,GA,(678) 208-3049,
1138,MELBOURNE - NEW HAVEN AVE,1700 WEST NEW HAVEN #201-D,MELBOURNE,FL,(321) 373-0038,
1139,WHITBY TAUNTON RD (Premier Plus),350 TAUNTON ROAD EAST,WHITBY,ON,(289) 645-2863,
1140,SLIDELL,390 TOWN CENTER PARKWAY,SLIDELL,LA,(985) 718-3095,
1141,ROSEVILLE - GRATIOT AVE,31055  GRATIOT AVE,ROSEVILLE,MI,(586) 298-3030,
1142,PARAMUS ROUTE 17 (Signature),240 ROUTE 17 N,PARAMUS,NJ,(201) 576-8093,
1143,GARDEN CITY PARK (Signature),2350 JERICHO TURNPIKE,GARDEN CITY PARK,NY,(516) 418-5017,
1145,SAN ANTONIO - NORTH LOOP 1604,1339 N. LOOP 1604 W.,SAN ANTONIO,TX,(210) 254-1597,
1146,NATICK,1 DEAN ROAD (SHERWOOD PLAZA),NATICK,MA,(508) 318-4073,
1147,PAWTUCKET,615 PAWTUCKET AVE,PAWTUCKET,RI,(401) 834-1397,
1148,"NEW LENOX, IL",2431 EAST LINCOLN HIGHWAY,NEW LENOX,IL,(815) 320-5085,
1149,AGOURA HILLS (Signature),5075 ROADSIDE RD,AGOURA HILLS,CA,(747) 212-9535,
1150,MISSISSAUGA - VEGA BLVD (Premier Plus),3055 VEGA BLVD,MISSISSAUGA,ON,(289) 814-0399,
1151,MIAMI - BIRD RD,8310 BIRD ROAD,MIAMI,FL,(786) 358-0525,
1152,WEST ST. PAUL,1611 ROBERT ST,WEST ST PAUL,MN,(612) 913-5792,
1153,ROCK HILL,745 ARDEN LANE,ROCK HILL,SC,(803) 818-3368,
1154,BATON ROUGE - SIEGEN LN,6474 SIEGEN LN,BATON ROUGE,LA,(225) 663-4191,
1155,MCKINNEY - CUSTER RD,9050 FALCON VIEW DRIVE,MCKINNEY,TX,(469) 352-9399,
1156,AUSTIN - SLAUGHTER LANE,1824 W SLAUGHTER LANE,AUSTIN,TX,(512) 593-4445,
1157,WALDORF,2916 FESTIVAL WAY,WALDORF,MD,(240) 530-8102,
1158,STATEN ISLAND - FOREST AVE (Signature),1565 FOREST AVE,STATEN ISLAND,NY,(917) 722-2604,
1159,TAMPA - CYPRESS PRESERVE DR,5225 CYPRESS PRESERVE DRIVE,TAMPA,FL,(813) 337-0966,
1160,MARLTON,1051 ROUTE 73 NORTH,MARLTON,NJ,(856) 452-9003,
1161,KEARNY (Signature),175 PASSAIC AVE,KEARNY,NJ,(201) 283-9703,
1163,FRISCO - DALLAS PKWY,5080 MAIN ST,FRISCO,TX,(469) 535-2506,
1165,POMPANO BEACH,1000 NORTH FEDERAL HIGHWAY,POMPANO BEACH,FL,(954) 366-2569,
1167,WEST ORANGE - PROSPECT,471 PROSPECT AVE,WEST ORANGE,NJ,(862) 233-8027,
1168,MEMPHIS RIDGEWAY RD,1285 RIDGEWAY ROAD,MEMPHIS,TN,(901) 291-1114,
1169,HUNTINGTON BEACH SEACLIFF,19330 GOLDENWEST ST,HUNTINGTON BEACH,CA,(657) 464-2464,
1170,ELMHURST,620 NORTH YORK ST,ELMHURST,IL,(630) 491-0112,
1171,SAN ANTONIO - W. LOOP 1604,522 WEST 1604 NORTH,SAN ANTONIO,TX,(210) 714-9783,
1172,SACHSE,7720 HIGHWAY 78,SACHSE,TX,(469) 209-8366,
1173,WEST SENECA,1012 UNION RD,WEST SENECA,NY,(716) 324-2476,
1175,SUGAR HILL,6025 CUMMING HIGHWAY,SUGAR HILL,GA,(470) 202-9109,
1176,BARRIE - CUNDLES RD. E. (Premier Plus),527 CUNDLES ROAD EAST BUILDING D,BARRIE,ON,(705) 302-2365,
1177,SAN BERNARDINO HOSPITALITY LN,555 E HOSPITALITY LANE,SAN BERNARDINO,CA,(909) 219-8501,
1178,ASPEN HILL,2219 BEL PRE ROAD,SILVER SPRING,MD,(301) 348-3650,
1179,HUNTINGTON STATION (Signature),305 W. JERICHO TURNPIKE,HUNTINGTON STATION,NY,(631) 683-3000,
1180,KING OF PRUSSIA - VILLAGE DR,200 VILLAGE DR,KING OF PRUSSIA,PA,(215) 716-9093,
1181,MENIFEE,29737 ANTELOPE RD,MENIFEE,CA,(951) 309-9017,
1184,PLYMOUTH,41128 ANN ARBOR RD E,PLYMOUTH,MI,(734) 259-4370,
1185,TORONTO - KEELE ST (Premier Plus),43 JUNCTION ROAD,TORONTO,ON,(437) 888-1139,
1186,TACOMA PACIFIC,15707 PACIFIC AVE S,TACOMA,WA,(253) 944-9104,
1188,OXNARD - CHANNEL ISLAND BLVD,1361 CHANNEL ISLANDS BLVD,OXNARD,CA,(805) 200-4855,
1189,MISSISSAUGA - ETOBICOKE CREEK (Premier Plus),"5077 DIXIE RD., BLDG. C",MISSISSAUGA,ON,(289) 724-1094,
1190,LODI (Signature),199 MAIN ST,LODI,NJ,(551) 245-9486,
1191,SEMINOLE - PARK BLVD,7635 113TH STREET,SEMINOLE,FL,(727) 440-8065,
1204,HOWELL,90 LANES MILL ROAD,HOWELL,NJ,(848) 222-2010,
1205,BROOKHAVEN-EDGMONT AVE,4900 EDGMONT AVE,BROOKHAVEN,PA,(484) 768-8216,
1206,JACKSONVILLE-OLD ST. AUGUSTINE,"11250 OLD ST AUGUSTINE RD, SUITE 16",JACKSONVILLE,FL,(904) 512-0551,
1207,SAN BERNARDINO-UNIVERSITY PKWY,4404 UNIVERSITY PARKWAY,SAN BERNARDINO,CA,(909) 352-4147,
1208,NORWALK - IMPERIAL HWY,12545 IMPERIAL HIGHWAY,NORWALK,CA,(562) 202-5723,
1209,DOWNTOWN LA BLOC - FLOWER ST.,700  W 7TH STREET SUITE G300,LOS ANGELES,CA,(213) 624-3933,
1210,ARLINGTON HEIGHTS - PALATINE RD,345 EAST PALATINE ROAD,ARLINGTON HEIGHTS,IL,(224) 318-1447,
1211,BOCA RATON - BERACASA WAY,7060 BERACASA WAY,BOCA RATON,FL,(561) 409-8098,
1212,ROSWELL-HWY 92/HARDSCRABBLE RD,1045 WOODSTOCK ROAD,ROSWELL,GA,(770) 375-4351,
1213,NORTH RICHLAND HILLS,9128 NORTH TARRANT PARKWAY,NORTH RICHLAND HILLS,TX,(682) 334-8094,
1214,TARZANA (Signature),18620 VENTURA BLVD,TARZANA,CA,(818) 650-9042,
1215,MISSISSAUGA-HURONTARIO/EGLINTON (Premier Plus),4561 HURONTARIO STREET,MISSISSAUGA,ON,(647) 243-5081,
1216,ROUND ROCK - PALM VALLEY BLVD,1000 N. AW GRIMES BLVD,ROUND ROCK,TX,(512) 652-2271,
1217,NORCROSS - PEACHTREE CORNERS,6131 PEACHTREE PARKWAY,PEACHTREE CORNERS,GA,(470) 282-0915,
1218,BARTLETT - STAGE RD,6050 STAGE ROAD,BARTLETT,TN,(901) 203-0391,
1219,SARASOTA - SOUTHGATE MALL,3501 S TAMIAMI TRAIL,SARASOTA,FL,(941) 960-8730,
1220,AUBURN - AUBURN WAY N,1347 AUBURN WAY NORTH,AUBURN,WA,(253) 263-8049,
1221,NORTHRIDGE - BALBOA BLVD,8400 BALBOA BLVD,NORTHRIDGE,CA,(818) 457-3863,
1222,NEWBURY PARK (Signature),3057 GRANDE VISTA DRIVE,NEWBURY PARK,CA,(805) 716-8727,
1223,UNION (Signature),1235 WEST CHESTNUT ST,UNION,NJ,(908) 468-2919,
1224,NORTH BABYLON (Signature),1230 DEER PARK AVE,NORTH BABYLON,NY,(631) 306-8102,
1225,TEMECULA PARKWAY,29920 TEMECULA PARKWAY,TEMECULA,CA,(951) 365-2097,
1226,CHEEKTOWAGA,"3737 UNION ROAD, SUITE 7",CHEEKTOWAGA,NY,(716) 391-9110,
1230,DUNEDIN,1681 MAIN ST,DUNEDIN,FL,(727) 601-0822,
1231,CORDOVA,773 N GERMANTOWN PARKWAY,CORDOVA,TN,(901) 203-3362,
1232,BEAR,900 EDEN CIRCLE,BEAR,DE,(302) 440-1378,
1233,LAKELAND-LAKELAND PARK CENTER,833 LAKELAND PARK CENTER DRIVE,LAKELAND,FL,(863) 213-1301,
1234,MEMPHIS - OAK COURT,4572 POPLAR AVE,MEMPHIS,TN,(901) 203-5361,
1235,COLLIERVILLE (Signature),1088 W POPLAR AVE,COLLIERVILLE,TN,(901) 610-4176,
1236,CLIFTON - ACKERMAN AVE (Signature),87 ACKERMAN AVE,CLIFTON,NJ,(862) 225-2023,
1238,KISSIMMEE - OSCEOLA PKWY,1980 OSCEOLA PKWY,KISSIMMEE,FL,(407) 874-1134,
1239,CHELTENHAM,2401 CHELTENHAM AVE SUITE M3,CHELTENHAM,PA,(267) 536-5228,
1240,GILBERT - S. HIGLEY/LOOP 202,1310 S HIGLEY ROAD,GILBERT,AZ,(480) 448-4743,
1241,PALM BEACH GARDENS-DONALD ROSS (Signature),5260 DONALD ROSS RD,PALM BEACH GARDENS,FL,(561) 223-6331,
1243,BROOMALL (Signature),2170 WEST CHESTER PIKE,BROOMALL,PA,(484) 427-2045,
1244,SANFORD,300 W LAKE MARY BLVD,SANFORD,FL,(321) 275-1144,
1245,LAWRENCE NY (Signature),345 ROCKAWAY TURNPIKE,LAWRENCE,NY,(516) 758-2994,
1246,LAKEWOOD RANCH,11661 SR 70 E,LAKEWOOD RANCH,FL,(941) 799-5536,
1247,ANN ARBOR - N. MAPLE RD. (Signature),155 N MAPLE RD,ANN ARBOR,MI,(734) 821-4976,
1248,LOMBARD,575 EAST ROOSEVELT ROAD,LOMBARD,IL,(630) 576-1662,
1250,CEDAR PARK - WHITESTONE BLVD,825 W WHITESTONE BLVD,CEDAR PARK,TX,(512) 546-6263,
1252,ORLANDO - GOLDENROD RD. AT 408 (Presale),7359 LAKE UNDERHILL ROAD,ORLANDO,FL,(407) 517-5237,
1254,LIVONIA - NORTH,29659 7 MILE RD,LIVONIA,MI,(734) 772-9590,
1255,SAN TAN VALLEY,40885 N. IRONWOOD DRIVE,SAN TAN VALLEY,AZ,(480) 448-4744,
1256,CLEARWATER - GULF TO BAY BLVD,2134 GULF TO BAY BLVD,CLEARWATER,FL,(727) 431-4090,
1257,SPRING - KUYKENDAHL RD (Signature),21720 KUYKENDAHL,SPRING,TX,(832) 702-8085,
1259,TACOMA - S 72ND ST,1905B SOUTH 72ND STREET,TACOMA,WA,(253) 533-9387,
1260,MUKILTEO SPEEDWAY - LYNNWOOD,13619 MUKILTEO SPEEDWAY,LYNNWOOD,WA,(206) 480-1103,
1262,HOUSTON - GESSNER/KEMPWOOD DR,2740 GESSNER RD,HOUSTON,TX,(346) 561-0360,
1263,STATEN ISLAND - HYLAN BLVD (Signature) (Presale),2626 HYLAN BLVD SUITE 3,STATEN ISLAND,NY,(929) 202-2005,
1264,"PASADENA, TX",6793 SPENCER HWY,PASADENA,TX,(281) 241-5699,
1265,BALTIMORE - EASTERN AVE (Presale),6500 EASTERN AVE STE B,BALTIMORE,MD,(443) 853-8315,
1266,SHELBY (Signature),7500 26 MILE RD,SHELBY TOWNSHIP,MI,(586) 935-0053,
1268,"LAWRENCEVILLE, GA",600 GWINNETT DR,LAWRENCEVILLE,GA,(470) 222-2009,
1269,ROCHESTER - EAST AVE (Signature),78 ROCKWOOD ST,ROCHESTER,NY,(585) 510-6265,
1272,LONGWOOD,200 S. HWY 17-92,LONGWOOD,FL,(321) 203-5056,
1276,COPPELL (Signature),250 W STATE HIGHWAY 121,COPPELL,TX,(469) 312-5351,
1278,DALLAS - ILLINOIS AVE,655 W ILLINOIS AVE STE 500,DALLAS,TX,(469) 518-9351,
1280,CAROL STREAM,470 E NORTH AVE,CAROL STREAM,IL,(630) 580-1373,
1281,BRICK,1 BRICK PLAZA,BRICK,NJ,(732) 746-0824,
1282,SANTA ANA - 17TH ST,1945 E 17TH STREET SUITE UNIT 103,SANTA ANA,CA,(714) 558-9700,
1284,SPRING - RAYFORD RD (Signature),3570 HARMONY COMMONS DRIVE,SPRING,TX,(832) 403-2913,
1286,HERNDON (Signature) (Presale),388 ELDEN STREET,HERNDON,VA,(571) 500-5730,
1288,WESTMONT (Signature) (Presale),66 WEST 63RD ST,WILLOWBROOK,IL,(630) 239-2370,
1290,ALIANA (Signature),19409 W BELLFORT ST,RICHMOND,TX,(346) 239-7748,
1291,NILES - TOUHY AVE (Signature) (Presale),5697 W TOUHY AVE,NILES,IL,(773) 993-1114,
1292,LEON VALLEY,5601 BANDERA RD,LEON VALLEY,TX,(210) 682-8086,
1293,W BOYNTON BEACH BLVD (Signature) (Presale),6601 BOYNTON BEACH BLVD,BOYNTON BEACH,FL,(561) 770-8395,
1294,NAPERVILLE RTE 59 (Signature),3116 SOUTH ROUTE 59 SUITE 160,NAPERVILLE,IL,(331) 226-0566,
1295,TOMS RIVER HOOPER AVE,1207 HOOPER AVE,TOMS RIVER,NJ,(732) 244-7154,
1296,CLIFFWOOD RTE 35 (Signature) (Presale),317 RT 35,CLIFFWOOD,NJ,(732) 231-2409,
1300,ASHBURN (Signature) (Presale),43200 BROADLANDS CENTER PLAZA,ASHBURN,VA,(703) 936-8412,
1301,PHILADELPHIA - COTTMAN AVE,2327 COTTMAN AVE,PHILADELPHIA,PA,(267) 668-1467,
1303,KATY - CINCO RANCH,26726 FM 1093,RICHMOND,TX,(346) 707-1602,
1318,FRISCO - CUSTER RD (Signature) (Presale),8720 STATE HWY 121 STE 126,MCKINNEY,TX,(214) 272-6831,
